1 48438C 21040L   22280.12201389 -.00006466  00000+0 -43322-3 0  2807
2 48438  53.0548  31.1415 0001592  52.8869   6.1163 15.06405155    14
1 48438C 21040L   22280.45048611 -.00030580  00000+0 -20494-2 0  2808
2 48438  53.0550  29.6669 0001663  53.1398 348.1635 15.06420127    19
1 48438C 21040L   22280.74770833 -.00003496  00000+0 -23433-3 0  2801
2 48438  53.0552  28.3326 0001745  53.3254 160.7372 15.06385830    18
1 48438C 21040L   22281.12062500  .00020245  00000+0  13571-2 0  2810
2 48438  53.0555  26.6586 0001752  52.8097  24.7012 15.06362248    15
1 48438C 21040L   22281.44631944 -.00015288  00000+0 -10246-2 0  2818
2 48438  53.0556  25.1967 0001736  51.0753 353.6202 15.06403936    10
1 48438C 21040L   22281.74354167  .00006876  00000+0  46075-3 0  2811
2 48438  53.0558  23.8625 0001721  49.0977 168.3433 15.06385918    13
1 48438C 21040L   22282.11645833  .00024647  00000+0  16515-2 0  2828
2 48438  53.0559  22.1886 0001680  47.4783  33.4145 15.06372732    18
1 48438C 21040L   22282.44145833 -.00016795  00000+0 -11250-2 0  2827
2 48438  53.0559  20.7298 0001725  46.9063 357.4157 15.06423647    18
1 48438C 21040L   22282.73659722 -.00003206  00000+0 -21474-3 0  2829
2 48438  53.0558  19.4050 0001754  46.5818 159.1994 15.06412387    19
1 48438C 21040L   22283.10534722  .00003852  00000+0  25817-3 0  2834
2 48438  53.0558  17.7498 0001710  45.7077   0.9355 15.06385452    12
1 48438C 21040L   22283.44562500  .00002010  00000+0  13473-3 0  2836
2 48438  53.0556  16.2224 0001732  45.7041  47.2834 15.06386157    15
1 48438C 21040L   22283.73173611 -.00008496  00000+0 -56940-3 0  2831
2 48438  53.0554  14.9382 0001766  46.5770 158.8442 15.06395528    14
1 48438C 21040L   22284.13590278  .00007350  00000+0  49271-3 0  2844
2 48438  53.0552  13.1240 0001806  45.9625 192.4806 15.06371845    17
1 48438C 21040L   22284.47965278  .00000845  00000+0  56631-4 0  2848
2 48438  53.0550  11.5810 0001802  45.9871 257.6259 15.06377852    19
1 48438C 21040L   22284.79979167  .00013664  00000+0  91616-3 0  2849
2 48438  53.0548  10.1440 0001886  44.8371 195.8372 15.06358676    17
1 48438C 21040L   22285.13173611  .00025061  00000+0  16800-2 0  2854
2 48438  53.0548   8.6540 0001881  43.9369 197.8412 15.06353013    19
1 48438C 21040L   22285.47548611  .00023329  00000+0  15633-2 0  2855
2 48438  53.0547   7.1109 0001921  44.2043 262.7304 15.06369749    16
1 48438C 21040L   22285.82131944  .00014387  00000+0  96357-3 0  2858
2 48438  53.0546   5.5584 0001974  43.2566 340.1531 15.06397056    16
1 48438C 21040L   22286.14840278 -.00003330  00000+0 -22303-3 0  2860
2 48438  53.0547   4.0901 0001961  41.8572 316.3182 15.06415651    10
1 48438C 21040L   22286.47131944 -.00008589  00000+0 -57532-3 0  2862
2 48438  53.0547   2.6403 0001940  40.6899 269.6664 15.06414439    15
1 48438C 21040L   22286.81784722 -.00004668  00000+0 -31269-3 0  2861
2 48438  53.0548   1.0847 0001935  38.2506 352.3933 15.06408128    10
1 48438C 21040L   22287.14354167 -.00001013  00000+0 -67891-4 0  2877
2 48438  53.0549 359.6225 0001928  36.4298 321.4536 15.06403647    10
1 48438C 21040L   22287.46645833  .00004980  00000+0  33358-3 0  2879
2 48438  53.0550 358.1728 0001980  37.2817 272.7719 15.06403337    15
1 48438C 21040L   22288.13937500 -.00000899  00000+0 -60234-4 0  2881
2 48438  53.0552 355.1518 0002136  40.1579 321.1913 15.06397567    15
1 48438C 21040L   22288.49562500 -.00003223  00000+0 -21600-3 0  2881
2 48438  53.0552 353.5525 0002151  40.4243  93.9516 15.06395569    16
1 48438C 21040L   22288.81020833 -.00001755  00000+0 -11760-3 0  2889
2 48438  53.0552 352.1404 0002110  39.3983   1.9142 15.06391857    10
1 48438C 21040L   22289.13798611 -.00010236  00000+0 -68606-3 0  2897
2 48438  53.0552 350.6689 0002078  37.7628 342.0701 15.06394299    12
1 48438C 21040L   22289.48173611  .00016940  00000+0  11354-2 0  2895
2 48438  53.0551 349.1258 0002058  37.3024  47.7332 15.06367394    15
1 48438C 21040L   22289.80465278  .00020462  00000+0  13709-2 0  2894
2 48438  53.0550 347.6763 0002086  37.6599 359.5035 15.06379315    19
1 48438C 21040L   22290.15534722  .00005385  00000+0  36069-3 0  2909
2 48438  53.0548 346.1020 0002075  38.1246 101.8972 15.06400817    19
1 48438C 21040L   22290.47756944 -.00006826  00000+0 -45730-3 0  2904
2 48438  53.0547 344.6556 0002088  37.1749  51.2414 15.06410629    17
1 48438C 21040L   22291.09909722 -.00010040  00000+0 -67284-3 0  2919
2 48438  53.0545 341.8655 0002056  35.3274 185.5364 15.06400885    10
1 48438C 21040L   22291.44770833  .00014319  00000+0  95964-3 0  2914
2 48438  53.0544 340.3005 0002076  35.2107 277.2392 15.06373939    17
1 48438C 21040L   22291.77062500  .00015995  00000+0  10716-2 0  2917
2 48438  53.0544 338.8510 0002125  34.8131 229.7707 15.06385682    17
1 48438C 21040L   22292.09423611  .00002803  00000+0  18775-3 0  2926
2 48438  53.0544 337.3983 0002120  34.7023 185.7924 15.06401871    10
1 48438C 21040L   22292.44631944 -.00008564  00000+0 -57373-3 0  2924
2 48438  53.0545 335.8177 0002156  34.5879 296.3303 15.06409395    14
1 48438C 21040L   22292.76645833  .00009635  00000+0  64550-3 0  2924
2 48438  53.0545 334.3806 0002203  34.0819 233.9364 15.06393176    12
1 48438C 21040L   22293.09284722 -.00005342  00000+0 -35791-3 0  2936
2 48438  53.0545 332.9154 0002182  33.1512 205.8551 15.06406455    19
1 48438C 21040L   22293.44145833 -.00009060  00000+0 -60704-3 0  2937
2 48438  53.0547 331.3504 0002207  33.3629 297.2306 15.06404081    18
1 48438C 21040L   22293.76159722  .00013326  00000+0  89280-3 0  2932
2 48438  53.0547 329.9133 0002247  32.6875 235.0017 15.06386877    19
1 48438C 21040L   22294.13937500  .00000776  00000+0  51988-4 0  2943
2 48438  53.0547 328.2161 0002141  33.3058 124.2076 15.06390396    11
1 48438C 21040L   22294.47965278  .00016546  00000+0  11085-2 0  2947
2 48438  53.0548 326.6900 0002290  32.4527 171.4137 15.06384509    12
1 48438C 21040L   22294.82687500 -.00010328  00000+0 -69186-3 0  2945
2 48438  53.0548 325.1313 0002284  31.7038 256.1878 15.06413507    10
1 48438C 21040L   22295.12270833 -.00016884  00000+0 -11313-2 0  2958
2 48438  53.0546 323.8032 0002275  31.5283  61.5719 15.06412621    19
1 48438C 21040L   22295.47479167  .00016328  00000+0  10940-2 0  2953
2 48438  53.0545 322.2227 0002273  31.5194 172.0201 15.06380006    11
1 48438C 21040L   22295.82270833  .00014658  00000+0  98162-3 0  2958
2 48438  53.0544 320.6609 0002288  32.0538 259.2808 15.06399804    17
1 48438C 21040L   22296.15395833 -.00013026  00000+0 -87231-3 0  2969
2 48438  53.0541 319.1737 0002262  31.9270 256.7805 15.06429121    17
1 48438C 21040L   22296.47062500 -.00021164  00000+0 -14179-2 0  2968
2 48438  53.0539 317.7521 0002237  31.0484 175.9336 15.06420552    19
1 48438C 21040L   22296.78798611 -.00034007  00000+0 -22795-2 0  2964
2 48438  53.0537 316.3274 0002212  29.2356  99.7744 15.06414417    16
1 48438C 21040L   22297.14909722 -.00009785  00000+0 -65619-3 0  2971
2 48438  53.0534 314.7061 0002182  28.4099 260.0106 15.06375447    14
1 48438C 21040L   22297.49423611  .00016042  00000+0  10757-2 0  2971
2 48438  53.0532 313.1567 0002209  28.5232 332.6072 15.06351427    16
1 48438C 21040L   22297.81854167  .00010372  00000+0  69540-3 0  2976
2 48438  53.0532 311.7009 0002247  29.1103 291.6663 15.06363860    11
1 48438C 21040L   22298.14493056  .00004482  00000+0  30048-3 0  2986
2 48438  53.0531 310.2355 0002278  29.6364 262.0973 15.06374254    11
1 48438C 21040L   22298.49770833  .00015709  00000+0  10528-2 0  2989
2 48438  53.0531 308.6517 0002329  30.5383  15.3553 15.06370831    11
1 48438C 21040L   22298.81298611  .00011519  00000+0  77186-3 0  2983
2 48438  53.0532 307.2363 0002373  31.1756 285.4033 15.06383466    17
1 48438C 21040L   22299.14076389  .00005625  00000+0  37685-3 0  2998
2 48438  53.0533 305.7646 0002408  31.8245 263.2713 15.06394540    18
1 48438C 21040L   22299.49562500  .00008658  00000+0  57997-3 0  2998
2 48438  53.0534 304.1714 0002453  32.5163  28.0667 15.06398031    19
1 48438C 21040L   22299.77409722 -.00011289  00000+0 -75613-3 0  2996
2 48438  53.0537 302.9212 0002464  32.4910  99.0905 15.06420301    11
1 48438C 21040L   22300.10187500 -.00010923  00000+0 -73171-3 0  3007
2 48438  53.0538 301.4495 0002468  32.2227  77.9119 15.06414650    14
1 48438C 21040L   22300.45256944  .00009068  00000+0  60742-3 0  3000
2 48438  53.0540 299.8751 0002451  32.2330 180.8031 15.06396447    19
1 48438C 21040L   22300.79909722 -.00009569  00000+0 -64099-3 0  3003
2 48438  53.0542 298.3194 0002458  32.4159 260.8934 15.06415763    18
1 48438C 21040L   22301.13173611 -.00007982  00000+0 -53475-3 0  3016
2 48438  53.0543 296.8259 0002434  32.0111 266.2259 15.06408726    13
1 48438C 21040L   22301.44909722 -.00008091  00000+0 -54215-3 0  3015
2 48438  53.0544 295.4013 0002415  31.8476 188.4106 15.06404743    18
1 48438C 21040L   22301.77895833  .00008599  00000+0  57614-3 0  3015
2 48438  53.0544 293.9205 0002418  31.6597 178.4510 15.06387649    12
1 48438C 21040L   22302.09423611 -.00049527  00000+0 -33184-2 0  3026
2 48438  53.0545 292.5053 0002358  32.7796  88.0155 15.06446771    18
1 48438C 21040L   22302.44145833 -.00001022  00000+0 -68496-4 0  3026
2 48438  53.0543 290.9465 0002363  32.8260 172.0514 15.06399576    11
1 48438C 21040L   22302.79145833 -.00002098  00000+0 -14057-3 0  3021
2 48438  53.0542 289.3754 0002374  34.6013 269.3923 15.06398204    12
1 48438C 21040L   22303.08868056 -.00006525  00000+0 -43724-3 0  3036
2 48438  53.0540 288.0411 0002377  35.5572  81.1737 15.06398092    17
1 48438C 21040L   22303.43729167 -.00002860  00000+0 -19166-3 0  3035
2 48438  53.0538 286.4764 0002368  35.7510 172.5528 15.06390820    15
1 48438C 21040L   22303.80604167 -.00005652  00000+0 -37881-3 0  3034
2 48438  53.0536 284.8211 0002335  35.0305  14.1163 15.06389432    14
